SHIJIAN-29A (SJ-29A)    
1 67302U 25315A   26019.66680865 -.00000054  00000+0  00000+0 0  9995
2 67302   3.0209  99.0590 0001520 304.1325  28.9397  1.00271351   123
CZ-7A R/B               
1 67303U 25315B   26019.53162379  .00095174  93927-6  27019-2 0  9992
2 67303  19.5776  92.3370 7187182 194.0157 123.3195  2.44437975   482
CSG-3                   
1 67304U 26001A   26019.61118807  .00000495  00000+0  68159-4 0  9999
2 67304  97.8447 205.4144 0001614  88.4584 271.6814 14.82510319  2454
STARLINK-36490          
1 67305U 26002A   26019.58335648 -.00234681  00000+0 -15571-2 0  9997
2 67305  42.9985 247.7535 0001642 258.0016 320.6680 15.75190013  3581
STARLINK-36488          
1 67306U 26002B   26019.58335648 -.00191724  00000+0 -12670-2 0  9995
2 67306  42.9983 247.7486 0001982 274.3061 306.2975 15.75154183  3522
STARLINK-36481          
1 67307U 26002C   26019.58335648 -.00039076  00000+0 -25221-3 0  9994
2 67307  42.9984 247.7389 0001699 267.1175 317.3650 15.75059355  3525
STARLINK-36449          
1 67308U 26002D   26019.58335648  .00172367  00000+0  11068-2 0  9997
2 67308  42.9985 247.7335 0001575 247.8268 338.5909 15.74948720  3589
STARLINK-36482          
1 67309U 26002E   26019.58335648  .00023670  00000+0  15687-3 0  9992
2 67309  42.9986 247.7104 0001888 267.3157 328.6790 15.75022606  3525
STARLINK-36491          
1 67310U 26002F   26019.58335648 -.00054483  00000+0 -35333-3 0  9992
2 67310  42.9988 247.7444 0001590 268.7468 313.8112 15.75072562  3526
STARLINK-36495          
1 67311U 26002G   26019.58335648  .00135224  00000+0  87317-3 0  9993
2 67311  42.9985 247.7295 0002402 274.1618 314.1699 15.74937372  3688
STARLINK-36485          
1 67312U 26002H   26019.58335648  .00004460  00000+0  32130-4 0  9995
2 67312  42.9986 247.7246 0001560 262.1446 328.0910 15.75036535  3521
STARLINK-36445          
1 67313U 26002J   26019.58335648  .00053231  00000+0  34786-3 0  9994
2 67313  42.9984 247.7189 0001763 262.4995 329.6552 15.75011876  3680
