CCSDS_OMM_VERS = 2.0
CREATION_DATE  = 
ORIGINATOR     = 

OBJECT_NAME    = SHIJIAN-29A (SJ-29A)
OBJECT_ID      = 2025-315A
CENTER_NAME    = EARTH
REF_FRAME      = TEME
TIME_SYSTEM    = UTC
MEAN_ELEMENT_THEORY = SGP/SGP4

EPOCH          = 2026-01-19T16:00:12.267360
MEAN_MOTION    = 1.00271351
ECCENTRICITY   = .000152
INCLINATION    = 3.0209
RA_OF_ASC_NODE = 99.0590
ARG_OF_PERICENTER = 304.1325
MEAN_ANOMALY   = 28.9397

EPHEMERIS_TYPE = 0
CLASSIFICATION_TYPE = U
NORAD_CAT_ID   = 67302
ELEMENT_SET_NO = 999
REV_AT_EPOCH   = 12
BSTAR          = 0
MEAN_MOTION_DOT = -.54E-6
MEAN_MOTION_DDOT = 0

CCSDS_OMM_VERS = 2.0
CREATION_DATE  = 
ORIGINATOR     = 

OBJECT_NAME    = CZ-7A R/B
OBJECT_ID      = 2025-315B
CENTER_NAME    = EARTH
REF_FRAME      = TEME
TIME_SYSTEM    = UTC
MEAN_ELEMENT_THEORY = SGP/SGP4

EPOCH          = 2026-01-19T12:45:32.295456
MEAN_MOTION    = 2.44437975
ECCENTRICITY   = .71871825
INCLINATION    = 19.5776
RA_OF_ASC_NODE = 92.3370
ARG_OF_PERICENTER = 194.0157
MEAN_ANOMALY   = 123.3195

EPHEMERIS_TYPE = 0
CLASSIFICATION_TYPE = U
NORAD_CAT_ID   = 67303
ELEMENT_SET_NO = 999
REV_AT_EPOCH   = 48
BSTAR          = .2701938E-2
MEAN_MOTION_DOT = .95174E-3
MEAN_MOTION_DDOT = .939266E-6

CCSDS_OMM_VERS = 2.0
CREATION_DATE  = 
ORIGINATOR     = 

OBJECT_NAME    = CSG-3
OBJECT_ID      = 2026-001A
CENTER_NAME    = EARTH
REF_FRAME      = TEME
TIME_SYSTEM    = UTC
MEAN_ELEMENT_THEORY = SGP/SGP4

EPOCH          = 2026-01-19T14:40:06.649248
MEAN_MOTION    = 14.82510319
ECCENTRICITY   = .00016147
INCLINATION    = 97.8447
RA_OF_ASC_NODE = 205.4144
ARG_OF_PERICENTER = 88.4584
MEAN_ANOMALY   = 271.6814

EPHEMERIS_TYPE = 0
CLASSIFICATION_TYPE = U
NORAD_CAT_ID   = 67304
ELEMENT_SET_NO = 999
REV_AT_EPOCH   = 245
BSTAR          = .68158517E-4
MEAN_MOTION_DOT = .495E-5
MEAN_MOTION_DDOT = 0

CCSDS_OMM_VERS = 2.0
CREATION_DATE  = 
ORIGINATOR     = 

OBJECT_NAME    = STARLINK-36490
OBJECT_ID      = 2026-002A
CENTER_NAME    = EARTH
REF_FRAME      = TEME
TIME_SYSTEM    = UTC
MEAN_ELEMENT_THEORY = SGP/SGP4

EPOCH          = 2026-01-19T14:00:01.999872
MEAN_MOTION    = 15.75190013
ECCENTRICITY   = .00016425
INCLINATION    = 42.9985
RA_OF_ASC_NODE = 247.7535
ARG_OF_PERICENTER = 258.0016
MEAN_ANOMALY   = 320.6680

EPHEMERIS_TYPE = 0
CLASSIFICATION_TYPE = U
NORAD_CAT_ID   = 67305
ELEMENT_SET_NO = 999
REV_AT_EPOCH   = 358
BSTAR          = -.15570572E-2
MEAN_MOTION_DOT = -.234681E-2
MEAN_MOTION_DDOT = 0

CCSDS_OMM_VERS = 2.0
CREATION_DATE  = 
ORIGINATOR     = 

OBJECT_NAME    = STARLINK-36488
OBJECT_ID      = 2026-002B
CENTER_NAME    = EARTH
REF_FRAME      = TEME
TIME_SYSTEM    = UTC
MEAN_ELEMENT_THEORY = SGP/SGP4

EPOCH          = 2026-01-19T14:00:01.999872
MEAN_MOTION    = 15.75154183
ECCENTRICITY   = .00019825
INCLINATION    = 42.9983
RA_OF_ASC_NODE = 247.7486
ARG_OF_PERICENTER = 274.3061
MEAN_ANOMALY   = 306.2975

EPHEMERIS_TYPE = 0
CLASSIFICATION_TYPE = U
NORAD_CAT_ID   = 67306
ELEMENT_SET_NO = 999
REV_AT_EPOCH   = 352
BSTAR          = -.12669898E-2
MEAN_MOTION_DOT = -.191724E-2
MEAN_MOTION_DDOT = 0

CCSDS_OMM_VERS = 2.0
CREATION_DATE  = 
ORIGINATOR     = 

OBJECT_NAME    = STARLINK-36481
OBJECT_ID      = 2026-002C
CENTER_NAME    = EARTH
REF_FRAME      = TEME
TIME_SYSTEM    = UTC
MEAN_ELEMENT_THEORY = SGP/SGP4

EPOCH          = 2026-01-19T14:00:01.999872
MEAN_MOTION    = 15.75059355
ECCENTRICITY   = .00016997
INCLINATION    = 42.9984
RA_OF_ASC_NODE = 247.7389
ARG_OF_PERICENTER = 267.1175
MEAN_ANOMALY   = 317.3650

EPHEMERIS_TYPE = 0
CLASSIFICATION_TYPE = U
NORAD_CAT_ID   = 67307
ELEMENT_SET_NO = 999
REV_AT_EPOCH   = 352
BSTAR          = -.25221265E-3
MEAN_MOTION_DOT = -.39076E-3
MEAN_MOTION_DDOT = 0

CCSDS_OMM_VERS = 2.0
CREATION_DATE  = 
ORIGINATOR     = 

OBJECT_NAME    = STARLINK-36449
OBJECT_ID      = 2026-002D
CENTER_NAME    = EARTH
REF_FRAME      = TEME
TIME_SYSTEM    = UTC
MEAN_ELEMENT_THEORY = SGP/SGP4

EPOCH          = 2026-01-19T14:00:01.999872
MEAN_MOTION    = 15.74948720
ECCENTRICITY   = .00015757
INCLINATION    = 42.9985
RA_OF_ASC_NODE = 247.7335
ARG_OF_PERICENTER = 247.8268
MEAN_ANOMALY   = 338.5909

EPHEMERIS_TYPE = 0
CLASSIFICATION_TYPE = U
NORAD_CAT_ID   = 67308
ELEMENT_SET_NO = 999
REV_AT_EPOCH   = 358
BSTAR          = .11067654E-2
MEAN_MOTION_DOT = .172367E-2
MEAN_MOTION_DDOT = 0

CCSDS_OMM_VERS = 2.0
CREATION_DATE  = 
ORIGINATOR     = 

OBJECT_NAME    = STARLINK-36482
OBJECT_ID      = 2026-002E
CENTER_NAME    = EARTH
REF_FRAME      = TEME
TIME_SYSTEM    = UTC
MEAN_ELEMENT_THEORY = SGP/SGP4

EPOCH          = 2026-01-19T14:00:01.999872
MEAN_MOTION    = 15.75022606
ECCENTRICITY   = .00018882
INCLINATION    = 42.9986
RA_OF_ASC_NODE = 247.7104
ARG_OF_PERICENTER = 267.3157
MEAN_ANOMALY   = 328.6790

EPHEMERIS_TYPE = 0
CLASSIFICATION_TYPE = U
NORAD_CAT_ID   = 67309
ELEMENT_SET_NO = 999
REV_AT_EPOCH   = 352
BSTAR          = .15687339E-3
MEAN_MOTION_DOT = .2367E-3
MEAN_MOTION_DDOT = 0

CCSDS_OMM_VERS = 2.0
CREATION_DATE  = 
ORIGINATOR     = 

OBJECT_NAME    = STARLINK-36491
OBJECT_ID      = 2026-002F
CENTER_NAME    = EARTH
REF_FRAME      = TEME
TIME_SYSTEM    = UTC
MEAN_ELEMENT_THEORY = SGP/SGP4

EPOCH          = 2026-01-19T14:00:01.999872
MEAN_MOTION    = 15.75072562
ECCENTRICITY   = .00015908
INCLINATION    = 42.9988
RA_OF_ASC_NODE = 247.7444
ARG_OF_PERICENTER = 268.7468
MEAN_ANOMALY   = 313.8112

EPHEMERIS_TYPE = 0
CLASSIFICATION_TYPE = U
NORAD_CAT_ID   = 67310
ELEMENT_SET_NO = 999
REV_AT_EPOCH   = 352
BSTAR          = -.35333325E-3
MEAN_MOTION_DOT = -.54483E-3
MEAN_MOTION_DDOT = 0

CCSDS_OMM_VERS = 2.0
CREATION_DATE  = 
ORIGINATOR     = 

OBJECT_NAME    = STARLINK-36495
OBJECT_ID      = 2026-002G
CENTER_NAME    = EARTH
REF_FRAME      = TEME
TIME_SYSTEM    = UTC
MEAN_ELEMENT_THEORY = SGP/SGP4

EPOCH          = 2026-01-19T14:00:01.999872
MEAN_MOTION    = 15.74937372
ECCENTRICITY   = .00024023
INCLINATION    = 42.9985
RA_OF_ASC_NODE = 247.7295
ARG_OF_PERICENTER = 274.1618
MEAN_ANOMALY   = 314.1699

EPHEMERIS_TYPE = 0
CLASSIFICATION_TYPE = U
NORAD_CAT_ID   = 67311
ELEMENT_SET_NO = 999
REV_AT_EPOCH   = 368
BSTAR          = .87316706E-3
MEAN_MOTION_DOT = .135224E-2
MEAN_MOTION_DDOT = 0

CCSDS_OMM_VERS = 2.0
CREATION_DATE  = 
ORIGINATOR     = 

OBJECT_NAME    = STARLINK-36485
OBJECT_ID      = 2026-002H
CENTER_NAME    = EARTH
REF_FRAME      = TEME
TIME_SYSTEM    = UTC
MEAN_ELEMENT_THEORY = SGP/SGP4

EPOCH          = 2026-01-19T14:00:01.999872
MEAN_MOTION    = 15.75036535
ECCENTRICITY   = .00015604
INCLINATION    = 42.9986
RA_OF_ASC_NODE = 247.7246
ARG_OF_PERICENTER = 262.1446
MEAN_ANOMALY   = 328.0910

EPHEMERIS_TYPE = 0
CLASSIFICATION_TYPE = U
NORAD_CAT_ID   = 67312
ELEMENT_SET_NO = 999
REV_AT_EPOCH   = 352
BSTAR          = .32129685E-4
MEAN_MOTION_DOT = .446E-4
MEAN_MOTION_DDOT = 0

CCSDS_OMM_VERS = 2.0
CREATION_DATE  = 
ORIGINATOR     = 

OBJECT_NAME    = STARLINK-36445
OBJECT_ID      = 2026-002J
CENTER_NAME    = EARTH
REF_FRAME      = TEME
TIME_SYSTEM    = UTC
MEAN_ELEMENT_THEORY = SGP/SGP4

EPOCH          = 2026-01-19T14:00:01.999872
MEAN_MOTION    = 15.75011876
ECCENTRICITY   = .00017631
INCLINATION    = 42.9984
RA_OF_ASC_NODE = 247.7189
ARG_OF_PERICENTER = 262.4995
MEAN_ANOMALY   = 329.6552

EPHEMERIS_TYPE = 0
CLASSIFICATION_TYPE = U
NORAD_CAT_ID   = 67313
ELEMENT_SET_NO = 999
REV_AT_EPOCH   = 368
BSTAR          = .34785761E-3
MEAN_MOTION_DOT = .53231E-3
MEAN_MOTION_DDOT = 0

